{
  "type": "FeatureCollection",
  "features": [
    {
      "type": "Feature",
      "properties": {
        "norad_id": 29770,
        "name": "FENGYUN 1C DEB",
        "group": "fengyun-1c-debris",
        "lat": 35.19081144648953,
        "lon": -113.50380600500243,
        "alt_km": 853.2918497335149,
        "timestamp": "2025-12-10T14:53:37.363817+00:00",
        "meta_object_name": "FENGYUN 1C DEB",
        "meta_object_id": "1999-025BL",
        "meta_epoch": "2025-12-10T04:12:04.955040",
        "meta_mean_motion": 14.20089696,
        "meta_eccentricity": 0.00625674,
        "meta_inclination": 98.8461,
        "meta_ra_of_asc_node": 59.746,
        "meta_arg_of_pericenter": 278.6466,
        "meta_mean_anomaly": 109.7732,
        "meta_ephemeris_type": 0,
        "meta_classification_type": "U",
        "meta_norad_cat_id": 29770,
        "meta_element_set_no": 999,
        "meta_rev_at_epoch": 97050,
        "meta_bstar": 0.0019967767,
        "meta_mean_motion_dot": 4.295e-05,
        "meta_mean_motion_ddot": 0,
        "tle_line1": "1 29770U 99025BL  25344.17505735  .00004295  00000+0  19968-2 0  9995",
        "tle_line2": "2 29770  98.8461  59.7460 0062567 278.6466 109.7732 14.20089696970504"
      },
      "geometry": {
        "type": "Point",
        "coordinates": [
          -113.50380600500243,
          35.19081144648953
        ]
      }
    },
    {
      "type": "Feature",
      "properties": {
        "norad_id": 29772,
        "name": "FENGYUN 1C DEB",
        "group": "fengyun-1c-debris",
        "lat": -11.649035176579236,
        "lon": 12.241711320966694,
        "alt_km": 910.974288920982,
        "timestamp": "2025-12-10T14:53:37.363826+00:00",
        "meta_object_name": "FENGYUN 1C DEB",
        "meta_object_id": "1999-025BN",
        "meta_epoch": "2025-12-10T07:59:03.938208",
        "meta_mean_motion": 14.0319606,
        "meta_eccentricity": 0.01382232,
        "meta_inclination": 98.3886,
        "meta_ra_of_asc_node": 193.7194,
        "meta_arg_of_pericenter": 297.041,
        "meta_mean_anomaly": 242.7077,
        "meta_ephemeris_type": 0,
        "meta_classification_type": "U",
        "meta_norad_cat_id": 29772,
        "meta_element_set_no": 999,
        "meta_rev_at_epoch": 96221,
        "meta_bstar": 0.0016567763,
        "meta_mean_motion_dot": 2.769e-05,
        "meta_mean_motion_ddot": 0,
        "tle_line1": "1 29772U 99025BN  25344.33268447  .00002769  00000+0  16568-2 0  9998",
        "tle_line2": "2 29772  98.3886 193.7194 0138223 297.0410 242.7077 14.03196060962216"
      },
      "geometry": {
        "type": "Point",
        "coordinates": [
          12.241711320966694,
          -11.649035176579236
        ]
      }
    },
    {
      "type": "Feature",
      "properties": {
        "norad_id": 29773,
        "name": "FENGYUN 1C DEB",
        "group": "fengyun-1c-debris",
        "lat": 54.08404792977315,
        "lon": 125.54167859145765,
        "alt_km": 810.3462920543798,
        "timestamp": "2025-12-10T14:53:37.363836+00:00",
        "meta_object_name": "FENGYUN 1C DEB",
        "meta_object_id": "1999-025BP",
        "meta_epoch": "2025-12-09T16:50:29.560992",
        "meta_mean_motion": 14.2756197,
        "meta_eccentricity": 0.00463807,
        "meta_inclination": 98.9874,
        "meta_ra_of_asc_node": 137.2182,
        "meta_arg_of_pericenter": 299.5955,
        "meta_mean_anomaly": 75.6052,
        "meta_ephemeris_type": 0,
        "meta_classification_type": "U",
        "meta_norad_cat_id": 29773,
        "meta_element_set_no": 999,
        "meta_rev_at_epoch": 98154,
        "meta_bstar": 0.00063375651,
        "meta_mean_motion_dot": 1.53e-05,
        "meta_mean_motion_ddot": 0,
        "tle_line1": "1 29773U 99025BP  25343.70173103  .00001530  00000+0  63376-3 0  9998",
        "tle_line2": "2 29773  98.9874 137.2182 0046380 299.5955  75.6052 14.27561970981548"
      },
      "geometry": {
        "type": "Point",
        "coordinates": [
          125.54167859145765,
          54.08404792977315
        ]
      }
    },
    {
      "type": "Feature",
      "properties": {
        "norad_id": 29774,
        "name": "FENGYUN 1C DEB",
        "group": "fengyun-1c-debris",
        "lat": 56.44955988304259,
        "lon": -89.06146494277723,
        "alt_km": 798.9307544761641,
        "timestamp": "2025-12-10T14:53:37.363845+00:00",
        "meta_object_name": "FENGYUN 1C DEB",
        "meta_object_id": "1999-025BQ",
        "meta_epoch": "2025-12-10T06:55:07.292640",
        "meta_mean_motion": 14.22729368,
        "meta_eccentricity": 0.00510217,
        "meta_inclination": 99.0758,
        "meta_ra_of_asc_node": 284.544,
        "meta_arg_of_pericenter": 130.1757,
        "meta_mean_anomaly": 27.0053,
        "meta_ephemeris_type": 0,
        "meta_classification_type": "U",
        "meta_norad_cat_id": 29774,
        "meta_element_set_no": 999,
        "meta_rev_at_epoch": 98040,
        "meta_bstar": 0.00027465168,
        "meta_mean_motion_dot": 5.77e-06,
        "meta_mean_motion_ddot": 0,
        "tle_line1": "1 29774U 99025BQ  25344.28827885  .00000577  00000+0  27465-3 0  9995",
        "tle_line2": "2 29774  99.0758 284.5440 0051021 130.1757  27.0053 14.22729368980401"
      },
      "geometry": {
        "type": "Point",
        "coordinates": [
          -89.06146494277723,
          56.44955988304259
        ]
      }
    },
    {
      "type": "Feature",
      "properties": {
        "norad_id": 29776,
        "name": "FENGYUN 1C DEB",
        "group": "fengyun-1c-debris",
        "lat": 58.119507782474436,
        "lon": -2.9382421415306768,
        "alt_km": 874.3831169820442,
        "timestamp": "2025-12-10T14:53:37.363854+00:00",
        "meta_object_name": "FENGYUN 1C DEB",
        "meta_object_id": "1999-025BS",
        "meta_epoch": "2025-12-10T01:13:37.054848",
        "meta_mean_motion": 14.07772747,
        "meta_eccentricity": 0.00227995,
        "meta_inclination": 98.7714,
        "meta_ra_of_asc_node": 10.8817,
        "meta_arg_of_pericenter": 278.7692,
        "meta_mean_anomaly": 136.0051,
        "meta_ephemeris_type": 0,
        "meta_classification_type": "U",
        "meta_norad_cat_id": 29776,
        "meta_element_set_no": 999,
        "meta_rev_at_epoch": 97042,
        "meta_bstar": 0.00014669472,
        "meta_mean_motion_dot": 2.06e-06,
        "meta_mean_motion_ddot": 0,
        "tle_line1": "1 29776U 99025BS  25344.05112332  .00000206  00000+0  14669-3 0  9997",
        "tle_line2": "2 29776  98.7714  10.8817 0022799 278.7692 136.0051 14.07772747970428"
      },
      "geometry": {
        "type": "Point",
        "coordinates": [
          -2.9382421415306768,
          58.119507782474436
        ]
      }
    },
    {
      "type": "Feature",
      "properties": {
        "norad_id": 29777,
        "name": "FENGYUN 1C DEB",
        "group": "fengyun-1c-debris",
        "lat": -43.73172817032575,
        "lon": -147.52292004609353,
        "alt_km": 861.0353174789689,
        "timestamp": "2025-12-10T14:53:37.363864+00:00",
        "meta_object_name": "FENGYUN 1C DEB",
        "meta_object_id": "1999-025BT",
        "meta_epoch": "2025-12-10T03:35:41.412768",
        "meta_mean_motion": 13.92102853,
        "meta_eccentricity": 0.00926231,
        "meta_inclination": 99.2838,
        "meta_ra_of_asc_node": 41.0085,
        "meta_arg_of_pericenter": 216.768,
        "meta_mean_anomaly": 169.3376,
        "meta_ephemeris_type": 0,
        "meta_classification_type": "U",
        "meta_norad_cat_id": 29777,
        "meta_element_set_no": 999,
        "meta_rev_at_epoch": 96005,
        "meta_bstar": 0.00020822843,
        "meta_mean_motion_dot": 2.3e-06,
        "meta_mean_motion_ddot": 0,
        "tle_line1": "1 29777U 99025BT  25344.14978487  .00000230  00000+0  20823-3 0  9995",
        "tle_line2": "2 29777  99.2838  41.0085 0092623 216.7680 169.3376 13.92102853960052"
      },
      "geometry": {
        "type": "Point",
        "coordinates": [
          -147.52292004609353,
          -43.73172817032575
        ]
      }
    },
    {
      "type": "Feature",
      "properties": {
        "norad_id": 29779,
        "name": "FENGYUN 1C DEB",
        "group": "fengyun-1c-debris",
        "lat": 21.07347668763647,
        "lon": -7.452359600496009,
        "alt_km": 886.5179684091017,
        "timestamp": "2025-12-10T14:53:37.363873+00:00",
        "meta_object_name": "FENGYUN 1C DEB",
        "meta_object_id": "1999-025BV",
        "meta_epoch": "2025-12-09T20:06:12.485664",
        "meta_mean_motion": 14.13439061,
        "meta_eccentricity": 0.00633687,
        "meta_inclination": 98.6773,
        "meta_ra_of_asc_node": 355.1618,
        "meta_arg_of_pericenter": 172.4101,
        "meta_mean_anomaly": 187.8047,
        "meta_ephemeris_type": 0,
        "meta_classification_type": "U",
        "meta_norad_cat_id": 29779,
        "meta_element_set_no": 999,
        "meta_rev_at_epoch": 97371,
        "meta_bstar": 0.00036969415,
        "meta_mean_motion_dot": 6.66e-06,
        "meta_mean_motion_ddot": 0,
        "tle_line1": "1 29779U 99025BV  25343.83764451  .00000666  00000+0  36969-3 0  9997",
        "tle_line2": "2 29779  98.6773 355.1618 0063368 172.4101 187.8047 14.13439061973711"
      },
      "geometry": {
        "type": "Point",
        "coordinates": [
          -7.452359600496009,
          21.07347668763647
        ]
      }
    }
  ]
}